OBJECT_NAME,OBJECT_ID,EPOCH,MEAN_MOTION,ECCENTRICITY,INCLINATION,RA_OF_ASC_NODE,ARG_OF_PERICENTER,MEAN_ANOMALY,EPHEMERIS_TYPE,CLASSIFICATION_TYPE,NORAD_CAT_ID,ELEMENT_SET_NO,REV_AT_EPOCH,BSTAR,MEAN_MOTION_DOT,MEAN_MOTION_DDOT
STARLINK-31594,2024-057N,2026-06-11T00:00:02.000160,15.27553892,.0001517,43.0037,31.4074,274.3784,281.2311,0,U,59332,999,587,.12395905E-2,.33979E-3,0
STARLINK-31572,2024-057P,2026-06-10T09:05:11.738976,15.27571415,.00010222,43.0010,34.9536,317.3421,42.7352,0,U,59333,999,12388,-.1784379E-5,-.311E-5,0
STARLINK-31573,2024-057Q,2026-06-10T08:09:43.305120,15.27581637,.00009204,43.0033,23.4089,78.5914,281.5041,0,U,59334,999,12401,.3781839E-5,-.158E-5,0
STARLINK-31588,2024-057R,2026-06-10T20:52:12.134496,15.27589373,.0001278,43.0067,20.5100,282.4395,77.6314,0,U,59335,999,12409,-.16037189E-4,-.704E-5,0
STARLINK-31596,2024-057S,2026-06-10T20:57:45.498528,15.27578914,.00016225,43.0058,20.5346,278.6152,81.4516,0,U,59336,999,12409,.52454353E-4,.1181E-4,0
STARLINK-31612,2024-057T,2026-06-10T23:05:11.828544,15.27590922,.00003648,43.0033,20.3408,154.5515,205.5355,0,U,59337,999,12410,.53145796E-4,.1201E-4,0
STARLINK-31550,2024-057U,2026-06-10T08:00:40.378752,15.27576461,.00009485,43.0008,24.2246,93.0183,267.0777,0,U,59338,999,12400,.2347282E-5,-.197E-5,0
STARLINK-31473,2024-057V,2026-06-10T21:14:24.424224,15.27581781,.00006995,42.9981,20.6201,256.7105,103.3668,0,U,59339,999,12409,.35719441E-4,.721E-5,0
STARLINK-31562,2024-057W,2026-06-10T21:58:06.354048,15.27573681,.0002088,43.0052,35.5709,273.8332,86.2281,0,U,59340,999,12392,-.99185011E-4,-.299E-4,0
STARLINK-31600,2024-057X,2026-06-10T08:47:22.795584,15.27576239,.00010603,42.9884,31.3903,247.1304,112.9436,0,U,59341,999,12392,.3743066E-5,-.159E-5,0
STARLINK-31628,2024-057Y,2026-06-10T21:44:01.818240,15.27573617,.00001721,43.0147,20.7785,215.5132,144.5709,0,U,59342,999,12409,-.1159743E-4,-.581E-5,0
YUNHAI-3 02,2024-058A,2026-06-11T07:30:47.671200,14.13326380,.00018212,98.8193,170.2486,66.5608,293.5756,0,U,59343,999,11391,.22900849E-4,-.1E-7,0
EUTELSAT 36D,2024-059A,2026-06-11T04:51:36.420768,1.00270402,.00003323,0.0195,21.3796,184.6490,162.3079,0,U,59346,999,808,0,.173E-5,0
STARLINK-31605,2024-060A,2026-06-11T01:05:16.912896,15.27578248,.000099,43.0014,81.9695,243.6011,116.4739,0,U,59348,999,12440,.21593674E-4,.332E-5,0
STARLINK-31532,2024-060B,2026-06-10T13:03:11.915424,15.27592455,.00035021,43.0014,95.4684,265.4769,94.5682,0,U,59349,999,12431,.91601903E-4,.226E-4,0
STARLINK-31593,2024-060C,2026-06-10T12:20:42.277344,15.27561684,.00011942,43.0143,95.2498,303.9947,56.0792,0,U,59350,999,12426,-.18579496E-3,-.5368E-4,0
STARLINK-31555,2024-060D,2026-06-11T01:47:36.684960,15.27570219,.00018934,43.0037,92.5722,275.6791,84.3845,0,U,59351,999,12439,-.326445E-6,-.271E-5,0
STARLINK-31561,2024-060E,2026-06-11T02:24:23.370336,15.27569921,.00011086,43.0023,91.9077,264.4855,95.5871,0,U,59352,999,12435,.76995048E-4,.1857E-4,0
STARLINK-31413,2024-060F,2026-06-11T02:44:45.424896,15.27612955,.0003691,43.0066,92.0205,286.9141,73.1306,0,U,59353,999,12435,-.41356861E-3,-.1164E-3,0
STARLINK-31422,2024-060G,2026-06-11T02:19:03.142560,15.27576662,.00011088,43.0082,92.7339,277.6816,82.3910,0,U,59354,999,12434,.30358792E-4,.573E-5,0
STARLINK-31416,2024-060H,2026-06-11T01:42:02.839680,15.27573958,.00013388,43.0004,92.5402,262.2642,97.8058,0,U,59355,999,12434,-.1333243E-5,-.299E-5,0
STARLINK-31552,2024-060J,2026-06-10T12:06:05.776992,15.27574709,.00013939,42.9994,96.0435,286.5283,73.5415,0,U,59356,999,12425,.94404773E-4,.2336E-4,0
STARLINK-31557,2024-060K,2026-06-11T02:04:43.461696,15.27577752,.00011028,43.0007,88.3038,274.5297,85.5429,0,U,59357,999,12439,.7370524E-4,.1767E-4,0
STARLINK-31559,2024-060L,2026-06-10T12:48:27.039456,15.27574502,.00011288,42.9889,95.3943,86.3628,273.7352,0,U,59358,999,12426,.1862286E-5,-.211E-5,0
STARLINK-31501,2024-060M,2026-06-11T02:02:21.787296,15.27596833,.00007573,42.9994,92.6508,229.0624,131.0162,0,U,59359,999,12434,.88436098E-4,.2174E-4,0
STARLINK-31549,2024-060N,2026-06-11T02:39:09.622656,15.27594348,.00009023,42.9991,91.9826,288.9083,71.1671,0,U,59360,999,12435,-.2167249E-3,-.6223E-4,0
STARLINK-31560,2024-060P,2026-06-11T01:53:08.623392,15.27574440,.00012638,42.9991,92.5934,259.3687,100.7022,0,U,59361,999,12434,.3403012E-5,-.168E-5,0
STARLINK-31571,2024-060Q,2026-06-11T01:56:50.918496,15.27577866,.00018801,42.9997,92.6150,275.2792,84.7845,0,U,59362,999,12434,.16343757E-4,.187E-5,0
STARLINK-31553,2024-060R,2026-06-10T11:34:10.512768,15.27576645,.00012142,43.0061,88.9305,264.9648,95.1066,0,U,59363,999,12433,.32536224E-4,.633E-5,0
STARLINK-31547,2024-060S,2026-06-11T01:23:34.252512,15.27576318,.00010947,43.0055,81.1985,271.3108,88.7619,0,U,59364,999,12447,.8782742E-5,-.2E-6,0
STARLINK-31537,2024-060T,2026-06-11T02:07:56.621856,15.27578313,.0001234,43.0043,92.6754,272.6014,87.4696,0,U,59365,999,12434,.18643294E-4,.251E-5,0
STARLINK-31451,2024-060U,2026-06-11T02:33:39.080448,15.27578638,.00008877,43.0057,91.9573,264.3734,95.7016,0,U,59366,999,12435,.40861997E-4,.863E-5,0
STARLINK-31428,2024-060V,2026-06-10T23:41:59.008128,15.27573589,.00012084,43.0028,92.7813,278.0669,82.0046,0,U,59367,999,12433,-.9313573E-5,-.518E-5,0
STARLINK-31419,2024-060W,2026-06-10T12:52:06.690720,15.27576005,.00049047,43.0450,95.4081,274.1351,85.8941,0,U,59368,999,12426,-.1826023E-4,-.767E-5,0
STARLINK-31583,2024-060X,2026-06-11T02:04:16.308768,15.27577495,.00011642,42.9959,81.4134,263.6058,96.4661,0,U,59369,999,12447,.18654875E-4,.251E-5,0
STARLINK-31461,2024-060Y,2026-06-11T00:46:46.377408,15.27574633,.00017018,43.0071,81.8686,273.5935,86.4722,0,U,59370,999,12440,.222114E-6,-.256E-5,0
RESURS-P 4,2024-061A,2026-06-11T07:40:31.773216,15.32097231,.00017172,97.2747,110.3208,131.3414,228.7976,0,U,59371,999,12286,.82765612E-4,.2489E-4,0
STARLINK-31641,2024-062A,2026-06-10T19:07:17.184288,15.34389477,.00013273,53.1598,184.8252,87.8266,272.2889,0,U,59374,999,12389,.741193E-6,-.351E-5,0
STARLINK-31430,2024-062B,2026-06-10T18:31:03.092448,15.34400957,.00012512,53.1592,185.3750,101.3153,258.7990,0,U,59375,999,12389,-.62263567E-4,-.2479E-4,0
STARLINK-31695,2024-062C,2026-06-11T05:20:38.978304,15.34060298,.00008069,53.1600,181.0800,118.1076,242.0008,0,U,59376,999,12395,.16771677E-2,.56103E-3,0
STARLINK-31716,2024-062D,2026-06-11T04:51:33.621408,15.30190408,.00010623,53.1591,132.6568,73.7697,286.3420,0,U,59377,999,12462,.28627226E-4,.489E-5,0
STARLINK-31710,2024-062E,2026-06-11T04:59:33.154368,15.34388711,.00011984,53.1602,180.9873,104.0295,256.0841,0,U,59378,999,12395,.59332827E-4,.1628E-4,0
STARLINK-31698,2024-062F,2026-06-11T04:41:22.601472,15.34389419,.0001282,53.1603,180.9246,93.6879,266.4270,0,U,59379,999,12395,.43952609E-4,.1109E-4,0
STARLINK-31680,2024-062G,2026-06-10T20:50:10.709664,15.34393109,.00012302,53.1581,184.5546,91.9207,268.1936,0,U,59380,999,12387,-.35240781E-4,-.1566E-4,0
STARLINK-31713,2024-062H,2026-06-10T19:04:17.409216,15.34363783,.00008831,53.1601,184.8121,57.4491,302.6597,0,U,59381,999,12386,-.17488521E-4,-.966E-5,0
STARLINK-31705,2024-062J,2026-06-11T05:08:38.331456,15.34392190,.00007987,53.1615,181.0261,85.3204,274.7890,0,U,59382,999,12395,.41506996E-4,.1026E-4,0
STARLINK-31715,2024-062L,2026-06-11T05:25:44.995872,15.30178726,.00011352,53.1587,181.0991,90.5153,269.5977,0,U,59384,999,12399,.76980502E-4,.192E-4,0
STARLINK-31717,2024-062M,2026-06-11T04:56:28.662720,15.34418764,.00011526,53.1602,180.9682,50.7751,309.3354,0,U,59385,999,12398,.64302944E-4,.1798E-4,0
STARLINK-31688,2024-062N,2026-06-10T19:13:20.577504,15.34391857,.00011681,53.1596,184.8475,86.0359,274.0777,0,U,59386,999,12386,.21529485E-4,.351E-5,0
STARLINK-31714,2024-062P,2026-06-11T04:47:25.672416,15.34396009,.00011554,53.1603,180.9369,102.6170,257.4961,0,U,59387,999,12394,.157926E-5,-.323E-5,0
STARLINK-31643,2024-062Q,2026-06-11T04:50:27.425184,15.34396710,.00011542,53.1617,180.9489,95.7633,264.3501,0,U,59388,999,12399,.1233916E-4,.41E-6,0
STARLINK-31647,2024-062R,2026-06-11T07:30:38.988864,15.34009037,.00006308,53.1600,180.9616,52.7593,307.3467,0,U,59389,999,12400,.16919856E-2,.56513E-3,0
STARLINK-31649,2024-062S,2026-06-11T05:11:38.705280,15.34421681,.00013262,53.1616,181.0355,52.0294,308.0828,0,U,59390,999,12399,.59984951E-4,.1652E-4,0
STARLINK-31644,2024-062T,2026-06-11T05:24:37.449216,15.34372880,.00010391,53.1596,183.2344,113.8924,246.2187,0,U,59391,999,12396,.29226539E-4,.611E-5,0
STARLINK-31626,2024-062U,2026-06-11T05:21:11.071584,15.30189827,.00011122,53.1589,181.0762,94.8223,265.2904,0,U,59392,999,12399,.45008797E-4,.974E-5,0
STARLINK-31443,2024-062V,2026-06-11T06:29:28.911264,15.34386175,.00013893,53.1601,166.9915,98.1117,262.0044,0,U,59393,999,12419,.825099E-5,-.98E-6,0
STARLINK-31607,2024-062W,2026-06-11T06:00:02.000160,15.33551410,.00013413,53.1588,180.9945,75.5501,51.1260,0,U,59394,999,592,-.37617883E-3,-.12725E-3,0
YAOGAN-42 01,2024-063A,2026-06-10T05:04:43.802976,15.23010933,.00044896,34.9970,169.6979,255.5185,104.5032,0,U,59395,999,12178,.2734192E-3,.6559E-4,0
STARLINK-31608,2024-062X,2026-06-11T06:00:02.000160,15.34349772,.00023993,53.1601,181.2919,71.9201,264.5505,0,U,59397,999,586,.59711762E-3,.1982E-3,0
STARLINK-31534,2024-064A,2026-06-10T22:53:33.167904,15.27575084,.00004181,42.9873,249.1001,340.9673,19.1163,0,U,59398,999,12343,.13556367E-4,.112E-5,0
STARLINK-31544,2024-064B,2026-06-10T22:33:24.024960,15.27589588,.00020499,42.9972,249.8516,280.2677,79.7943,0,U,59399,999,12348,.29840909E-4,.559E-5,0
STARLINK-31545,2024-064C,2026-06-10T23:10:10.340544,15.27592298,.0000647,42.9971,249.1830,99.3247,260.7678,0,U,59400,999,12349,-.16918678E-3,-.4916E-4,0
STARLINK-31507,2024-064D,2026-06-10T23:19:27.020928,15.27579438,.00015334,43.0009,249.2261,251.4346,108.6339,0,U,59401,999,12343,.1579356E-5,-.219E-5,0
STARLINK-31543,2024-064E,2026-06-10T22:22:17.639040,15.27579502,.00019848,42.9991,249.7894,287.8551,72.2084,0,U,59402,999,12348,.17657832E-4,.224E-5,0
